ORBCOMM FM05            
1 25117U 97084F   25342.22219733  .00003061  00000+0  87833-3 0  9990
2 25117  45.0134 252.0394 0003404   4.0895 355.9985 14.46683991465805
ORBCOMM FM06            
1 25118U 97084G   25342.50523603  .00002848  00000+0  81730-3 0  9998
2 25118  45.0126 250.2083 0002319   1.0026 168.3966 14.46846037466762
ORBCOMM FM07            
1 25119U 97084H   25342.48515144  .00003017  00000+0  86324-3 0  9990
2 25119  45.0124 251.0555 0004220   4.9992 355.0902 14.46857362466758
ORBCOMM FM03            
1 25158U 98007B   25342.36496154  .00002292  00000+0  83935-3 0  9994
2 25158 107.9637 133.5029 0046366 301.9413  57.7223 14.35007593449027
ORBCOMM FM04            
1 25159U 98007C   25342.38912442  .00002431  00000+0  88492-3 0  9998
2 25159 107.9628 136.8921 0042240 299.1309  60.5607 14.35252782449215
ORBCOMM FM17            
1 25413U 98046A   25342.55211120  .00001758  00000+0  65410-3 0  9994
2 25413  44.9924 154.4528 0002283  22.9461 337.1487 14.35521979428224
ORBCOMM FM18            
1 25414U 98046B   25342.56258826  .00002898  00000+0  97300-3 0  9999
2 25414  44.9929  67.0569 0003056 102.7039 257.4152 14.39135871429366
ORBCOMM FM19            
1 25415U 98046C   25342.62831934  .00002677  00000+0  90554-3 0  9993
2 25415  44.9939  69.0111 0001823 107.1946  31.9929 14.38955101429327
